NORAD_CAT_ID,OBJECT_NAME,OBJECT_TYPE,EPOCH,MEAN_MOTION,ECCENTRICITY,INCLINATION,RA_OF_ASC_NODE,ARG_OF_PERICENTER,MEAN_ANOMALY,BSTAR,MEAN_MOTION_DOT,MEAN_MOTION_DDOT,TLE_LINE0,TLE_LINE1,TLE_LINE2,SEMIMAJOR_AXIS,PERIOD,APOGEE,PERIGEE,DECAYED
51868.0,STARLINK-3578,PAYLOAD,2022-07-30 22:00:00,15.08842207,0.0002452,53.216,164.8408,56.6667,270.536,-6.9841e-05,-1.4e-05,0.0,0 STARLINK-3578,1 51868U 22022S   22211.91667824 -.00001400  00000-0 -69841-4 0  9996,2 51868  53.2160 164.8408 0002452  56.6667 270.5360 15.08842207  1301,6917.874,95.437,541.435,538.0419999999998,0.0
51868.0,STARLINK-3578,PAYLOAD,2022-07-31 06:00:02,15.08821218,0.0002643,53.2161,163.3461,52.4343,286.4321,0.0017999,0.0002846,0.0,0 STARLINK-3578,1 51868U 22022S   22212.25002315  .00028460  00000-0  17999-2 0  9990,2 51868  53.2161 163.3461 0002643  52.4343 286.4321 15.08821218 24219,6917.938,95.439,541.631,537.974,0.0
51868.0,STARLINK-3578,PAYLOAD,2022-07-31 14:00:01,15.08847586,0.0002544,53.216,161.8484,54.4774,295.9122,-0.001213,-0.00019546,0.0,0 STARLINK-3578,1 51868U 22022S   22212.58334491 -.00019546  00000-0 -12130-2 0  9998,2 51868  53.2160 161.8484 0002544  54.4774 295.9122 15.08847586  1301,6917.857,95.437,541.482,537.962,0.0
51868.0,STARLINK-3578,PAYLOAD,2022-07-31 22:00:00,15.08854004,0.0002563999999999,53.2162,160.3519,57.7597,304.2217,-0.00038051,-6.342e-05,0.0,0 STARLINK-3578,1 51868U 22022S   22212.91667824 -.00006342  00000-0 -38051-3 0  9995,2 51868  53.2162 160.3519 0002564  57.7597 304.2217 15.08854004  1309,6917.8380000000025,95.437,541.476,537.929,0.0
51868.0,STARLINK-3578,PAYLOAD,2022-08-01 06:00:00,15.08831261,0.0002717,53.2162,158.8572,53.6208,319.9753,0.0021233,0.00033659,0.0,0 STARLINK-3578,1 51868U 22022S   22213.25001157  .00033659  00000-0  21233-2 0  9996,2 51868  53.2162 158.8572 0002717  53.6208 319.9753 15.08831261 24374,6917.906999999997,95.438,541.6519999999998,537.893,0.0
51868.0,STARLINK-3578,PAYLOAD,2022-08-01 14:00:01,15.08855022,0.0002576,53.2163,157.3593,55.3451,329.8507,-0.0031844,-0.00050636,0.0,0 STARLINK-3578,1 51868U 22022S   22213.58334491 -.00050636  00000-0 -31844-2 0  9997,2 51868  53.2163 157.3593 0002576  55.3451 329.8507 15.08855022  1300,6917.834,95.437,541.482,537.9169999999998,0.0
51868.0,STARLINK-3578,PAYLOAD,2022-08-01 22:00:00,15.08841792,0.0002577,53.2165,155.8629,57.3985,339.3858,-0.00069485,-0.00011331,0.0,0 STARLINK-3578,1 51868U 22022S   22213.91667824 -.00011331  00000-0 -69485-3 0  9995,2 51868  53.2165 155.8629 0002577  57.3985 339.3858 15.08841792 24477,6917.875,95.437,541.523,537.957,0.0
51868.0,STARLINK-3578,PAYLOAD,2022-08-02 14:00:01,15.08836285,0.0002621,53.2166,152.8701,56.8851,3.079,-3.7192e-05,-8.8e-06,0.0,0 STARLINK-3578,1 51868U 22022S   22214.58334491 -.00000880  00000-0 -37192-4 0  9998,2 51868  53.2166 152.8701 0002621  56.8851   3.0790 15.08836285 24574,6917.892,95.438,541.57,537.944,0.0
51868.0,STARLINK-3578,PAYLOAD,2022-08-03 14:00:01,15.08845743,0.0002596,53.2168,148.3809,58.3639,36.4054,-0.0017432,-0.0002793,0.0,0 STARLINK-3578,1 51868U 22022S   22215.58334491 -.00027930  00000-0 -17432-2 0  9997,2 51868  53.2168 148.3809 0002596  58.3639  36.4054 15.08845743  1305,6917.863,95.437,541.524,537.932,0.0
51868.0,STARLINK-3578,PAYLOAD,2022-08-03 22:00:01,15.08847012,0.0002618,53.2168,146.8847,59.5627,46.8546,-0.0012932,-0.00020816,0.0,0 STARLINK-3578,1 51868U 22022S   22215.91668981 -.00020816  00000-0 -12932-2 0  9994,2 51868  53.2168 146.8847 0002618  59.5627  46.8546 15.08847012  1307,6917.859,95.437,541.535,537.913,0.0
51868.0,STARLINK-3578,PAYLOAD,2022-08-04 14:00:01,15.08830209,0.0002571,53.2166,143.8917,60.2682,69.2756,0.0010854,0.00017024,0.0,0 STARLINK-3578,1 51868U 22022S   22216.58334491  .00017024  00000-0  10854-2 0  9990,2 51868  53.2166 143.8917 0002571  60.2682  69.2756 15.08830209  1300,6917.91,95.438,541.554,537.997,0.0
51868.0,STARLINK-3578,PAYLOAD,2022-08-04 22:00:00,15.08868418,0.0002613,53.2166,142.3958,61.4875,79.6426,-0.002513,-0.00040094,0.0,0 STARLINK-3578,1 51868U 22022S   22216.91667824 -.00040094  00000-0 -25130-2 0  9994,2 51868  53.2166 142.3958 0002613  61.4875  79.6426 15.08868418 24928,6917.794,95.436,541.466,537.851,0.0
51868.0,STARLINK-3578,PAYLOAD,2022-08-05 14:00:01,15.08815346,0.0002474,53.2161,139.4025,61.7659,102.6313,0.0016221,0.00025605,0.0,0 STARLINK-3578,1 51868U 22022S   22217.58335648  .00025605  00000-0  16221-2 0  9994,2 51868  53.2161 139.4025 0002474  61.7659 102.6313 15.08815346  1304,6917.956,95.439,541.5319999999998,538.109,0.0
51868.0,STARLINK-3578,PAYLOAD,2022-08-05 22:00:00,15.08850354,0.0002552999999999,53.2162,137.9068,63.0044,112.9028,-0.0015773,-0.00025312,0.0,0 STARLINK-3578,1 51868U 22022S   22217.91667824 -.00025312  00000-0 -15773-2 0  9993,2 51868  53.2162 137.9068 0002553  63.0044 112.9028 15.08850354 25071,6917.849,95.437,541.48,537.948,0.0
51868.0,STARLINK-3578,PAYLOAD,2022-08-06 14:00:01,15.08837813,0.0002461999999999,53.2158,134.9133,63.9877,135.1164,-0.00088148,-0.0001429,0.0,0 STARLINK-3578,1 51868U 22022S   22218.58334491 -.00014290  00000-0 -88148-3 0  9998,2 51868  53.2158 134.9133 0002462  63.9877 135.1164 15.08837813 25172,6917.887,95.438,541.455,538.049,0.0
51868.0,STARLINK-3578,PAYLOAD,2022-08-06 22:00:00,15.08836502,0.0002496,53.2159,133.4179,63.9659,146.7254,-0.0014643,-0.00023516,0.0,0 STARLINK-3578,1 51868U 22022S   22218.91667824 -.00023516  00000-0 -14643-2 0  9993,2 51868  53.2159 133.4179 0002496  63.9659 146.7254 15.08836502  1303,6917.891,95.438,541.4830000000002,538.029,0.0
51868.0,STARLINK-3578,PAYLOAD,2022-08-07 14:00:01,15.08812143,0.0002460999999999,53.2157,130.4242,65.3284,168.5283,0.0025154,0.00039942,0.0,0 STARLINK-3578,1 51868U 22022S   22219.58334491  .00039942  00000-0  25154-2 0  9995,2 51868  53.2157 130.4242 0002461  65.3284 168.5283 15.08812143  1300,6917.965999999999,95.439,541.533,538.128,0.0
51868.0,STARLINK-3578,PAYLOAD,2022-08-07 22:00:00,15.08852451,0.0002566999999999,53.2159,128.9289,65.2901,180.1431,-0.0012326,-0.00019859,0.0,0 STARLINK-3578,1 51868U 22022S   22219.91667824 -.00019859  00000-0 -12326-2 0  9995,2 51868  53.2159 128.9289 0002567  65.2901 180.1431 15.08852451  1308,6917.842,95.437,541.4830000000002,537.932,0.0
51868.0,STARLINK-3578,PAYLOAD,2022-08-08 14:00:01,15.08850996,0.0002481,53.2161,125.9351,66.7321,201.9955,0.0018953,0.00030014,0.0,0 STARLINK-3578,1 51868U 22022S   22220.58335648  .00030014  00000-0  18953-2 0  9992,2 51868  53.2161 125.9351 0002481  66.7321 201.9955 15.08850996 25474,6917.847,95.437,541.428,537.995,0.0
51868.0,STARLINK-3578,PAYLOAD,2022-08-08 22:00:00,15.08876919,0.0002501999999999,53.2163,124.4398,65.061,215.2266,-0.0029298,-0.00046664,0.0,0 STARLINK-3578,1 51868U 22022S   22220.91667824 -.00046664  00000-0 -29298-2 0  9997,2 51868  53.2163 124.4398 0002502  65.0610 215.2266 15.08876919  1300,6917.768,95.435,541.363,537.9019999999998,0.0
51868.0,STARLINK-3578,PAYLOAD,2022-08-09 14:00:01,15.08787147,0.0002276999999999,53.2168,121.4461,64.3851,239.1114,0.0028969,0.00046052,0.0,0 STARLINK-3578,1 51868U 22022S   22221.58334491  .00046052  00000-0  28969-2 0  9995,2 51868  53.2168 121.4461 0002277  64.3851 239.1114 15.08787147  1302,6918.042,95.441,541.482,538.332,0.0
51868.0,STARLINK-3578,PAYLOAD,2022-08-09 22:00:00,15.08829406,0.0002393,53.217,119.951,62.8955,252.1527,-0.00099262,-0.00016047,0.0,0 STARLINK-3578,1 51868U 22022S   22221.91667824 -.00016047  00000-0 -99262-3 0  9999,2 51868  53.2170 119.9510 0002393  62.8955 252.1527 15.08829406  1307,6917.913000000001,95.438,541.433,538.122,0.0
51868.0,STARLINK-3578,PAYLOAD,2022-08-10 06:00:00,15.08827108,0.0002421999999999,53.2169,118.4553,59.8377,266.7839,0.00090872,0.00014199,0.0,0 STARLINK-3578,1 51868U 22022S   22222.25001157  .00014199  00000-0  90872-3 0  9990,2 51868  53.2169 118.4553 0002422  59.8377 266.7839 15.08827108 25729,6917.92,95.438,541.46,538.109,0.0
51868.0,STARLINK-3578,PAYLOAD,2022-08-10 14:00:01,15.0881237,0.0002314,53.2173,116.9573,65.9626,272.2535,0.0034338999999999,0.00054747,0.0,0 STARLINK-3578,1 51868U 22022S   22222.58334491  .00054747  00000-0  34339-2 0  9994,2 51868  53.2173 116.9573 0002314  65.9626 272.2535 15.08812370  1302,6917.965,95.439,541.431,538.229,0.0
51868.0,STARLINK-3578,PAYLOAD,2022-08-10 22:00:00,15.08835147,0.0002362,53.2175,115.4623,63.019,286.7791,-0.0018757,-0.00030014,0.0,0 STARLINK-3578,1 51868U 22022S   22222.91667824 -.00030014  00000-0 -18757-2 0  9999,2 51868  53.2175 115.4623 0002362  63.0190 286.7791 15.08835147  1303,6917.895,95.438,541.394,538.126,0.0
51868.0,STARLINK-3578,PAYLOAD,2022-08-11 06:00:02,15.08826979,0.0002359,53.2173,113.9663,60.2365,301.196,0.00015071,2.11e-05,0.0,0 STARLINK-3578,1 51868U 22022S   22223.25002315  .00002110  00000-0  15071-3 0  9996,2 51868  53.2173 113.9663 0002359  60.2365 301.1960 15.08826979 25889,6917.92,95.438,541.4169999999998,538.153,0.0
51868.0,STARLINK-3578,PAYLOAD,2022-08-11 14:00:01,15.08805287,0.0002248,53.2175,112.4685,67.139,305.819,0.0034696999999999,0.00055314,0.0,0 STARLINK-3578,1 51868U 22022S   22223.58334491  .00055314  00000-0  34697-2 0  9993,2 51868  53.2175 112.4685 0002248  67.1390 305.8190 15.08805287  1306,6917.986,95.44,541.4069999999998,538.2959999999998,0.0
51868.0,STARLINK-3578,PAYLOAD,2022-08-12 14:00:01,15.08845724,0.0002173,53.2171,107.9794,68.8964,338.8588,0.00071137,0.00011053,0.0,0 STARLINK-3578,1 51868U 22022S   22224.58334491  .00011053  00000-0  71137-3 0  9997,2 51868  53.2171 107.9794 0002173  68.8964 338.8588 15.08845724  1301,6917.863,95.437,541.231,538.225,0.0
51868.0,STARLINK-3578,PAYLOAD,2022-08-12 22:00:01,15.08847986,0.0002236,53.2171,106.4845,65.123,354.2969,-0.0010501,-0.00016966,0.0,0 STARLINK-3578,1 51868U 22022S   22224.91668981 -.00016966  00000-0 -10501-2 0  9995,2 51868  53.2171 106.4845 0002236  65.1230 354.2969 15.08847986  1305,6917.856,95.437,541.268,538.174,0.0
